[{"OBJECT_NAME":"STARLINK-3513","OBJECT_ID":"2022-016AU","EPOCH":"2026-03-09T22:17:49.773120","MEAN_MOTION":15.0883954,"ECCENTRICITY":0.00013386,"INCLINATION":53.2189,"RA_OF_ASC_NODE":308.0441,"ARG_OF_PERICENTER":95.0913,"MEAN_ANOMALY":265.0232,"EPHEMERIS_TYPE":0,"CLASSIFICATION_TYPE":"U","NORAD_CAT_ID":51756,"ELEMENT_SET_NO":999,"REV_AT_EPOCH":22374,"BSTAR":-2.0432753e-5,"MEAN_MOTION_DOT":-6.13e-6,"MEAN_MOTION_DDOT":0},{"OBJECT_NAME":"LEMUR-2-ESPERANZA","OBJECT_ID":"2025-061B","EPOCH":"2026-03-09T20:59:51.017856","MEAN_MOTION":15.12770808,"ECCENTRICITY":0.00169494,"INCLINATION":97.5568,"RA_OF_ASC_NODE":45.1407,"ARG_OF_PERICENTER":244.877,"MEAN_ANOMALY":115.0702,"EPHEMERIS_TYPE":0,"CLASSIFICATION_TYPE":"U","NORAD_CAT_ID":63352,"ELEMENT_SET_NO":999,"REV_AT_EPOCH":5257,"BSTAR":0.00034972806,"MEAN_MOTION_DOT":6.09e-5,"MEAN_MOTION_DDOT":0}]
